NORAD_CAT_ID,OBJECT_NAME,OBJECT_TYPE,EPOCH,MEAN_MOTION,ECCENTRICITY,INCLINATION,RA_OF_ASC_NODE,ARG_OF_PERICENTER,MEAN_ANOMALY,BSTAR,MEAN_MOTION_DOT,MEAN_MOTION_DDOT,TLE_LINE0,TLE_LINE1,TLE_LINE2,SEMIMAJOR_AXIS,PERIOD,APOGEE,PERIGEE,DECAYED
52879.0,STARLINK-4139,PAYLOAD,2024-06-02 22:25:23,15.08837708,0.00015,53.2186,28.5413,90.0819,270.0345,0.00012536,1.708e-05,0.0,0 STARLINK-4139,1 52879U 22062BB  24154.93429403  .00001708  00000-0  12536-3 0  9999,2 52879  53.2186  28.5413 0001500  90.0819 270.0345 15.08837708108731,6917.887,95.438,540.79,538.715,0.0
52879.0,STARLINK-4139,PAYLOAD,2024-06-03 01:36:09,15.08840428,0.0001586,53.2185,27.9466,93.4652,266.6522,8.199e-05,1.017e-05,0.0,0 STARLINK-4139,1 52879U 22062BB  24155.06677263  .00001017  00000-0  81990-4 0  9997,2 52879  53.2185  27.9466 0001586  93.4652 266.6522 15.08840428109245,6917.879,95.438,540.841,538.647,0.0
52879.0,STARLINK-4139,PAYLOAD,2024-06-03 22:16:10,15.08841097,0.0001527,53.2181,24.0805,89.5147,270.602,0.00015415,2.166e-05,0.0,0 STARLINK-4139,1 52879U 22062BB  24155.92789396  .00002166  00000-0  15415-3 0  9997,2 52879  53.2181  24.0805 0001527  89.5147 270.6020 15.08841097108886,6917.877,95.437,540.798,538.686,0.0
52879.0,STARLINK-4139,PAYLOAD,2024-06-04 22:06:56,15.08846293,0.0001617,53.2195,19.6206,90.087,270.0307,0.00013823,1.913e-05,0.0,0 STARLINK-4139,1 52879U 22062BB  24156.92148969  .00001913  00000-0  13823-3 0  9993,2 52879  53.2195  19.6206 0001617  90.0870 270.0307 15.08846293109039,6917.861,95.437,540.845,538.608,0.0
52879.0,STARLINK-4139,PAYLOAD,2024-06-05 14:00:48,15.08836098,0.0001937,53.2137,16.6455,90.7866,269.3348,-4.2753e-05,-9.68e-06,0.0,0 STARLINK-4139,1 52879U 22062BB  24157.58389437 -.00000968  00000-0 -42753-4 0  9999,2 52879  53.2137  16.6455 0001937  90.7866 269.3348 15.08836098109134,6917.892,95.438,541.097,538.417,0.0
52879.0,STARLINK-4139,PAYLOAD,2024-06-05 23:33:06,15.088661,0.000179,53.2139,14.8616,96.9632,263.1564,-0.00081913,-0.0001331,0.0,0 STARLINK-4139,1 52879U 22062BB  24157.98132048 -.00013310  00000-0 -81913-3 0  9992,2 52879  53.2139  14.8616 0001790  96.9632 263.1564 15.08866100109680,6917.801,95.436,540.904,538.427,0.0
52879.0,STARLINK-4139,PAYLOAD,2024-06-06 07:30:02,15.08852422,0.0001702,53.2127,13.3746,95.7289,264.3897,-0.00061096,-0.00010002,0.0,0 STARLINK-4139,1 52879U 22062BB  24158.31252546 -.00010002  00000-0 -61096-3 0  9991,2 52879  53.2127  13.3746 0001702  95.7289 264.3897 15.08852422109733,6917.842,95.437,540.885,538.53,0.0
52879.0,STARLINK-4139,PAYLOAD,2024-06-07 13:42:22,15.08840081,0.0001555,53.2098,7.7235,87.5192,272.5978,0.00017774,2.542e-05,0.0,0 STARLINK-4139,1 52879U 22062BB  24159.57109916  .00002542  00000-0  17774-3 0  9994,2 52879  53.2098   7.7235 0001555  87.5192 272.5978 15.08840081109928,6917.88,95.438,540.821,538.669,0.0
52879.0,STARLINK-4139,PAYLOAD,2024-06-07 20:03:55,15.08842371,0.0001544,53.2097,6.5338,87.6414,272.4755,0.00019904,2.881e-05,0.0,0 STARLINK-4139,1 52879U 22062BB  24159.83605843  .00002881  00000-0  19904-3 0  9996,2 52879  53.2097   6.5338 0001544  87.6414 272.4755 15.08842371109470,6917.873,95.437,540.806,538.67,0.0
52879.0,STARLINK-4139,PAYLOAD,2024-06-08 07:11:37,15.0884199,0.0001458,53.213,4.4531,93.843,266.2729,0.00019599,2.833e-05,0.0,0 STARLINK-4139,1 52879U 22062BB  24160.29973852  .00002833  00000-0  19599-3 0  9993,2 52879  53.2130   4.4531 0001458  93.8430 266.2729 15.08841990109547,6917.874,95.437,540.748,538.731,0.0
52879.0,STARLINK-4139,PAYLOAD,2024-06-08 19:54:42,15.0885028,0.000163,53.2121,2.0726,95.2868,264.831,0.00023532,3.46e-05,0.0,0 STARLINK-4139,1 52879U 22062BB  24160.82965344  .00003460  00000-0  23532-3 0  9998,2 52879  53.2121   2.0726 0001630  95.2868 264.8310 15.08850280110117,6917.849,95.437,540.842,538.586,0.0
52879.0,STARLINK-4139,PAYLOAD,2024-06-08 21:30:05,15.08850816,0.0001486,53.2137,1.7777,88.8594,271.2569,0.00019726,2.854e-05,0.0,0 STARLINK-4139,1 52879U 22062BB  24160.89589356  .00002854  00000-0  19726-3 0  9996,2 52879  53.2137   1.7777 0001486  88.8594 271.2569 15.08850816109637,6917.847,95.437,540.74,538.684,0.0
52879.0,STARLINK-4139,PAYLOAD,2024-06-09 19:45:29,15.08833632,0.0001459,53.2138,357.6146,87.4636,272.6524,-4.9618e-05,-1.077e-05,0.0,0 STARLINK-4139,1 52879U 22062BB  24161.82326290 -.00001077  00000-0 -49618-4 0  9998,2 52879  53.2138 357.6146 0001459  87.4636 272.6524 15.08833632110267,6917.9,95.438,540.774,538.756,0.0
52879.0,STARLINK-4139,PAYLOAD,2024-06-09 21:20:52,15.08835426,0.0001466,53.2154,357.3171,88.7116,271.4044,-6.6684e-05,-1.349e-05,0.0,0 STARLINK-4139,1 52879U 22062BB  24161.88950196 -.00001349  00000-0 -66684-4 0  9996,2 52879  53.2154 357.3171 0001466  88.7116 271.4044 15.08835426109787,6917.894,95.438,540.774,538.745,0.0
52879.0,STARLINK-4139,PAYLOAD,2024-06-09 22:56:16,15.0883685,0.000144,53.2163,357.0199,88.4462,271.6695,-3.9145e-05,-9.11e-06,0.0,0 STARLINK-4139,1 52879U 22062BB  24161.95574404 -.00000911  00000-0 -39145-4 0  9994,2 52879  53.2163 357.0199 0001440  88.4462 271.6695 15.08836850109794,6917.89,95.438,540.751,538.759,0.0
52879.0,STARLINK-4139,PAYLOAD,2024-06-10 22:47:03,15.08835938,0.0001578,53.219,352.5581,96.0233,264.0939,9.332e-05,1.197e-05,0.0,0 STARLINK-4139,1 52879U 22062BB  24162.94934147  .00001197  00000-0  93320-4 0  9998,2 52879  53.2190 352.5581 0001578  96.0233 264.0939 15.08835938109942,6917.893,95.438,540.849,538.666,0.0
52879.0,STARLINK-4139,PAYLOAD,2024-06-11 05:08:35,15.08836676,0.0001567,53.219,351.3691,95.0608,265.0563,9.1936e-05,1.175e-05,0.0,0 STARLINK-4139,1 52879U 22062BB  24163.21430194  .00001175  00000-0  91936-4 0  9999,2 52879  53.2190 351.3691 0001567  95.0608 265.0563 15.08836676110478,6917.891,95.438,540.84,538.672,0.0
52879.0,STARLINK-4139,PAYLOAD,2024-06-11 11:30:08,15.08834883,0.0001462,53.2182,350.1805,89.947,270.1689,9.6856e-05,1.254e-05,0.0,0 STARLINK-4139,1 52879U 22062BB  24163.47926381  .00001254  00000-0  96856-4 0  9999,2 52879  53.2182 350.1805 0001462  89.9470 270.1689 15.08834883110021,6917.896,95.438,540.772,538.75,0.0
52879.0,STARLINK-4139,PAYLOAD,2024-06-12 04:59:22,15.0884452,0.0001346,53.217,346.9113,88.1779,271.9368,0.00014031,1.946e-05,0.0,0 STARLINK-4139,1 52879U 22062BB  24164.20789552  .00001946  00000-0  14031-3 0  9990,2 52879  53.2170 346.9113 0001346  88.1779 271.9368 15.08844520110625,6917.867,95.437,540.663,538.8,0.0
52879.0,STARLINK-4139,PAYLOAD,2024-06-12 20:53:14,15.08834425,0.000155,53.2188,343.936,83.4122,276.7047,-1.4732e-05,-5.22e-06,0.0,0 STARLINK-4139,1 52879U 22062BB  24164.87030995 -.00000522  00000-0 -14732-4 0  9993,2 52879  53.2188 343.9360 0001550  83.4122 276.7047 15.08834425110723,6917.897,95.438,540.835,538.69,0.0
52879.0,STARLINK-4139,PAYLOAD,2024-06-13 11:11:42,15.08837721,0.0001487,53.2193,341.2598,79.7353,280.3807,3.5431e-05,2.76e-06,0.0,0 STARLINK-4139,1 52879U 22062BB  24165.46646753  .00000276  00000-0  35431-4 0  9997,2 52879  53.2193 341.2598 0001487  79.7353 280.3807 15.08837721110329,6917.887,95.438,540.781,538.724,0.0
52879.0,STARLINK-4139,PAYLOAD,2024-06-13 19:08:37,15.08850282,0.0001437,53.2185,339.7743,86.3078,273.8079,4.1021e-05,3.65e-06,0.0,0 STARLINK-4139,1 52879U 22062BB  24165.79765864  .00000365  00000-0  41021-4 0  9999,2 52879  53.2185 339.7743 0001437  86.3078 273.8079 15.08850282110377,6917.849,95.437,540.708,538.72,0.0
52879.0,STARLINK-4139,PAYLOAD,2024-06-14 04:40:56,15.08847977,0.0001346,53.2177,337.9908,93.365,266.7496,-1.0219e-05,-4.51e-06,0.0,0 STARLINK-4139,1 52879U 22062BB  24166.19509990 -.00000451  00000-0 -10219-4 0  9993,2 52879  53.2177 337.9908 0001346  93.3650 266.7496 15.08847977110432,6917.856,95.437,540.652,538.79,0.0
52879.0,STARLINK-4139,PAYLOAD,2024-06-14 20:34:48,15.08843858,0.0001531,53.2186,335.016,103.5014,256.6149,8.3265e-05,1.038e-05,0.0,0 STARLINK-4139,1 52879U 22062BB  24166.85750180  .00001038  00000-0  83265-4 0  9996,2 52879  53.2186 335.0160 0001531 103.5014 256.6149 15.08843858110533,6917.869,95.437,540.793,538.674,0.0
52879.0,STARLINK-4139,PAYLOAD,2024-06-15 04:31:44,15.08837101,0.0001387,53.218,333.5277,89.4896,270.6255,4.9259e-05,4.96e-06,0.0,0 STARLINK-4139,1 52879U 22062BB  24167.18870741  .00000496  00000-0  49259-4 0  9991,2 52879  53.2180 333.5277 0001387  89.4896 270.6255 15.08837101110581,6917.889,95.438,540.714,538.795,0.0
52879.0,STARLINK-4139,PAYLOAD,2024-06-15 17:14:49,15.08839626,0.0001231,53.2174,331.1492,90.3121,269.8012,9.67e-05,1.251e-05,0.0,0 STARLINK-4139,1 52879U 22062BB  24167.71862465  .00001251  00000-0  96700-4 0  9997,2 52879  53.2174 331.1492 0001231  90.3121 269.8012 15.08839626110661,6917.882,95.438,540.598,538.895,0.0
52879.0,STARLINK-4139,PAYLOAD,2024-06-16 13:54:49,15.08839592,0.000154,53.2189,327.2853,96.6258,263.491,8.6996e-05,1.097e-05,0.0,0 STARLINK-4139,1 52879U 22062BB  24168.57974430  .00001097  00000-0  86996-4 0  9992,2 52879  53.2189 327.2853 0001540  96.6258 263.4910 15.08839592110790,6917.882,95.438,540.812,538.681,0.0
52879.0,STARLINK-4139,PAYLOAD,2024-06-16 17:05:35,15.08841039,0.0001406,53.2188,326.6897,101.8988,258.2162,0.00011127,1.483e-05,0.0,0 STARLINK-4139,1 52879U 22062BB  24168.71222211  .00001483  00000-0  11127-3 0  9993,2 52879  53.2188 326.6897 0001406 101.8988 258.2162 15.08841039110813,6917.877,95.437,540.715,538.77,0.0
52879.0,STARLINK-4139,PAYLOAD,2024-06-17 16:56:23,15.08835535,0.0001224,53.2171,322.2305,82.4912,277.6219,2.7847e-05,1.55e-06,0.0,0 STARLINK-4139,1 52879U 22062BB  24169.70583033  .00000155  00000-0  27847-4 0  9997,2 52879  53.2171 322.2305 0001224  82.4912 277.6219 15.08835535111453,6917.894,95.438,540.606,538.912,0.0
52879.0,STARLINK-4139,PAYLOAD,2024-06-18 13:36:24,15.08842657,0.000136,53.2174,318.3643,88.032,272.0828,9.4676e-05,1.219e-05,0.0,0 STARLINK-4139,1 52879U 22062BB  24170.56694471  .00001219  00000-0  94676-4 0  9998,2 52879  53.2174 318.3643 0001360  88.0320 272.0828 15.08842657111585,6917.872,95.437,540.678,538.796,0.0
